[{"OBJECT_NAME":"OOV-CUBE (TUBSAT-30)","OBJECT_ID":"2024-128F","EPOCH":"2026-04-04T06:06:30.083904","MEAN_MOTION":15.02418368,"ECCENTRICITY":0.00523445,"INCLINATION":61.9933,"RA_OF_ASC_NODE":123.3015,"ARG_OF_PERICENTER":117.594,"MEAN_ANOMALY":243.0481,"EPHEMERIS_TYPE":0,"CLASSIFICATION_TYPE":"U","NORAD_CAT_ID":60240,"ELEMENT_SET_NO":999,"REV_AT_EPOCH":9500,"BSTAR":0.00029989697,"MEAN_MOTION_DOT":3.898e-5,"MEAN_MOTION_DDOT":0},{"OBJECT_NAME":"COLIBRI-S (RS67S)","OBJECT_ID":"2024-199M","EPOCH":"2026-04-04T05:14:39.023808","MEAN_MOTION":15.44739964,"ECCENTRICITY":0.00090764,"INCLINATION":97.3106,"RA_OF_ASC_NODE":327.5216,"ARG_OF_PERICENTER":177.7667,"MEAN_ANOMALY":182.3624,"EPHEMERIS_TYPE":0,"CLASSIFICATION_TYPE":"U","NORAD_CAT_ID":61746,"ELEMENT_SET_NO":999,"REV_AT_EPOCH":12598,"BSTAR":0.00078036988,"MEAN_MOTION_DOT":0.00036554,"MEAN_MOTION_DDOT":0},{"OBJECT_NAME":"HORS 3 (RS81S)","OBJECT_ID":"2024-199U","EPOCH":"2026-04-04T05:22:29.963424","MEAN_MOTION":15.50259183,"ECCENTRICITY":0.00072036,"INCLINATION":97.3076,"RA_OF_ASC_NODE":328.8233,"ARG_OF_PERICENTER":177.5174,"MEAN_ANOMALY":182.6115,"EPHEMERIS_TYPE":0,"CLASSIFICATION_TYPE":"U","NORAD_CAT_ID":61753,"ELEMENT_SET_NO":999,"REV_AT_EPOCH":12608,"BSTAR":0.00094995393,"MEAN_MOTION_DOT":0.00053969,"MEAN_MOTION_DDOT":0},{"OBJECT_NAME":"HORS 4 (RS82S)","OBJECT_ID":"2024-199V","EPOCH":"2026-04-04T05:48:42.840000","MEAN_MOTION":15.53537653,"ECCENTRICITY":0.00068682,"INCLINATION":97.3047,"RA_OF_ASC_NODE":329.6464,"ARG_OF_PERICENTER":172.414,"MEAN_ANOMALY":187.7219,"EPHEMERIS_TYPE":0,"CLASSIFICATION_TYPE":"U","NORAD_CAT_ID":61754,"ELEMENT_SET_NO":999,"REV_AT_EPOCH":12614,"BSTAR":0.0010695182,"MEAN_MOTION_DOT":0.00068436,"MEAN_MOTION_DDOT":0},{"OBJECT_NAME":"HORIZON (RS59S)","OBJECT_ID":"2024-199Y","EPOCH":"2026-04-04T05:38:49.799040","MEAN_MOTION":15.79537794,"ECCENTRICITY":0.00064421,"INCLINATION":97.2986,"RA_OF_ASC_NODE":334.3276,"ARG_OF_PERICENTER":149.1437,"MEAN_ANOMALY":211.0211,"EPHEMERIS_TYPE":0,"CLASSIFICATION_TYPE":"U","NORAD_CAT_ID":61757,"ELEMENT_SET_NO":999,"REV_AT_EPOCH":12644,"BSTAR":0.0016844548,"MEAN_MOTION_DOT":0.00315926,"MEAN_MOTION_DDOT":0},{"OBJECT_NAME":"ARCTICSAT 1 (RS74S)","OBJECT_ID":"2024-199AD","EPOCH":"2026-04-04T05:06:36.117792","MEAN_MOTION":15.72154489,"ECCENTRICITY":0.0006629,"INCLINATION":97.3019,"RA_OF_ASC_NODE":333.6101,"ARG_OF_PERICENTER":146.571,"MEAN_ANOMALY":213.5973,"EPHEMERIS_TYPE":0,"CLASSIFICATION_TYPE":"U","NORAD_CAT_ID":61762,"ELEMENT_SET_NO":999,"REV_AT_EPOCH":12639,"BSTAR":0.0015625579,"MEAN_MOTION_DOT":0.0020998,"MEAN_MOTION_DDOT":0},{"OBJECT_NAME":"SIT-2086","OBJECT_ID":"2024-199AF","EPOCH":"2026-04-04T06:00:41.554080","MEAN_MOTION":15.49060647,"ECCENTRICITY":0.00071367,"INCLINATION":97.3067,"RA_OF_ASC_NODE":329.5427,"ARG_OF_PERICENTER":166.2059,"MEAN_ANOMALY":193.9388,"EPHEMERIS_TYPE":0,"CLASSIFICATION_TYPE":"U","NORAD_CAT_ID":61764,"ELEMENT_SET_NO":999,"REV_AT_EPOCH":12297,"BSTAR":0.0007650547,"MEAN_MOTION_DOT":0.00041589,"MEAN_MOTION_DDOT":0},{"OBJECT_NAME":"HYPERVIEW 1G (RS66S)","OBJECT_ID":"2024-199AP","EPOCH":"2026-04-04T05:24:06.429888","MEAN_MOTION":15.61992726,"ECCENTRICITY":0.00082485,"INCLINATION":97.3021,"RA_OF_ASC_NODE":331.0245,"ARG_OF_PERICENTER":171.8336,"MEAN_ANOMALY":188.3058,"EPHEMERIS_TYPE":0,"CLASSIFICATION_TYPE":"U","NORAD_CAT_ID":61772,"ELEMENT_SET_NO":999,"REV_AT_EPOCH":12308,"BSTAR":0.0013179219,"MEAN_MOTION_DOT":0.00116388,"MEAN_MOTION_DDOT":0},{"OBJECT_NAME":"ALTAIR (RS65S)","OBJECT_ID":"2024-199AW","EPOCH":"2026-04-04T06:01:22.646784","MEAN_MOTION":15.35623391,"ECCENTRICITY":0.00124188,"INCLINATION":97.3133,"RA_OF_ASC_NODE":324.1217,"ARG_OF_PERICENTER":204.6389,"MEAN_ANOMALY":155.4263,"EPHEMERIS_TYPE":0,"CLASSIFICATION_TYPE":"U","NORAD_CAT_ID":61779,"ELEMENT_SET_NO":999,"REV_AT_EPOCH":12576,"BSTAR":0.00055752458,"MEAN_MOTION_DOT":0.00019302,"MEAN_MOTION_DDOT":0},{"OBJECT_NAME":"ASRTU-1 (AO-123)","OBJECT_ID":"2024-199AY","EPOCH":"2026-04-04T05:55:14.640672","MEAN_MOTION":15.34592296,"ECCENTRICITY":0.00132939,"INCLINATION":97.3105,"RA_OF_ASC_NODE":323.5976,"ARG_OF_PERICENTER":207.627,"MEAN_ANOMALY":152.4268,"EPHEMERIS_TYPE":0,"CLASSIFICATION_TYPE":"U","NORAD_CAT_ID":61781,"ELEMENT_SET_NO":999,"REV_AT_EPOCH":12258,"BSTAR":0.00045702327,"MEAN_MOTION_DOT":0.00015294,"MEAN_MOTION_DDOT":0},{"OBJECT_NAME":"TUSUR GO (RS78S)","OBJECT_ID":"2024-199AZ","EPOCH":"2026-04-04T05:30:39.892032","MEAN_MOTION":15.81560269,"ECCENTRICITY":0.00067881,"INCLINATION":97.2935,"RA_OF_ASC_NODE":333.3594,"ARG_OF_PERICENTER":159.682,"MEAN_ANOMALY":200.472,"EPHEMERIS_TYPE":0,"CLASSIFICATION_TYPE":"U","NORAD_CAT_ID":61782,"ELEMENT_SET_NO":999,"REV_AT_EPOCH":12324,"BSTAR":0.0019046476,"MEAN_MOTION_DOT":0.00395247,"MEAN_MOTION_DDOT":0},{"OBJECT_NAME":"SAMSAT-IONOSPHERE (RS75S)","OBJECT_ID":"2024-199BB","EPOCH":"2026-04-04T05:25:47.115264","MEAN_MOTION":15.51786029,"ECCENTRICITY":0.00098728,"INCLINATION":97.306,"RA_OF_ASC_NODE":328.6669,"ARG_OF_PERICENTER":182.0586,"MEAN_ANOMALY":178.0628,"EPHEMERIS_TYPE":0,"CLASSIFICATION_TYPE":"U","NORAD_CAT_ID":61784,"ELEMENT_SET_NO":999,"REV_AT_EPOCH":12607,"BSTAR":0.0010683383,"MEAN_MOTION_DOT":0.00064226,"MEAN_MOTION_DDOT":0},{"OBJECT_NAME":"RTU MIREA 1 (RS51S)","OBJECT_ID":"2024-199BC","EPOCH":"2026-04-04T06:06:19.142208","MEAN_MOTION":15.54047372,"ECCENTRICITY":0.00099648,"INCLINATION":97.3059,"RA_OF_ASC_NODE":329.2209,"ARG_OF_PERICENTER":179.6068,"MEAN_ANOMALY":180.5195,"EPHEMERIS_TYPE":0,"CLASSIFICATION_TYPE":"U","NORAD_CAT_ID":61785,"ELEMENT_SET_NO":999,"REV_AT_EPOCH":12296,"BSTAR":0.0011605786,"MEAN_MOTION_DOT":0.00075805,"MEAN_MOTION_DDOT":0},{"OBJECT_NAME":"TEVEL2-4","OBJECT_ID":"2025-052D","EPOCH":"2026-04-04T05:48:13.065696","MEAN_MOTION":15.32084733,"ECCENTRICITY":0.000357,"INCLINATION":97.3986,"RA_OF_ASC_NODE":350.6242,"ARG_OF_PERICENTER":47.9687,"MEAN_ANOMALY":312.1858,"EPHEMERIS_TYPE":0,"CLASSIFICATION_TYPE":"U","NORAD_CAT_ID":63213,"ELEMENT_SET_NO":999,"REV_AT_EPOCH":5878,"BSTAR":0.0011372429,"MEAN_MOTION_DOT":0.0003528,"MEAN_MOTION_DDOT":0},{"OBJECT_NAME":"TEVEL2-5","OBJECT_ID":"2025-052E","EPOCH":"2026-04-04T04:33:00.461088","MEAN_MOTION":15.31944758,"ECCENTRICITY":0.00035746,"INCLINATION":97.3985,"RA_OF_ASC_NODE":350.5387,"ARG_OF_PERICENTER":48.4718,"MEAN_ANOMALY":311.683,"EPHEMERIS_TYPE":0,"CLASSIFICATION_TYPE":"U","NORAD_CAT_ID":63214,"ELEMENT_SET_NO":999,"REV_AT_EPOCH":5877,"BSTAR":0.0011340814,"MEAN_MOTION_DOT":0.00035027,"MEAN_MOTION_DDOT":0},{"OBJECT_NAME":"TEVEL2-6","OBJECT_ID":"2025-052F","EPOCH":"2026-04-03T03:43:06.537792","MEAN_MOTION":15.31832415,"ECCENTRICITY":0.00037757,"INCLINATION":97.399,"RA_OF_ASC_NODE":349.491,"ARG_OF_PERICENTER":49.6169,"MEAN_ANOMALY":310.5402,"EPHEMERIS_TYPE":0,"CLASSIFICATION_TYPE":"U","NORAD_CAT_ID":63215,"ELEMENT_SET_NO":999,"REV_AT_EPOCH":5861,"BSTAR":0.0010972614,"MEAN_MOTION_DOT":0.00033764,"MEAN_MOTION_DDOT":0}]
