OOV-CUBE (TUBSAT-30)    
1 60240U 24128F   26094.25451486  .00003898  00000+0  29990-3 0  9994
2 60240  61.9933 123.3015 0052344 117.5940 243.0481 15.02418368 95009
COLIBRI-S (RS67S)       
1 61746U 24199M   26094.21850722  .00036554  00000+0  78037-3 0  9997
2 61746  97.3106 327.5216 0009076 177.7667 182.3624 15.44739964125984
HORS 3 (RS81S)          
1 61753U 24199U   26094.22395791  .00053969  00000+0  94995-3 0  9996
2 61753  97.3076 328.8233 0007203 177.5174 182.6115 15.50259183126089
HORS 4 (RS82S)          
1 61754U 24199V   26094.24216250  .00068436  00000+0  10695-2 0  9990
2 61754  97.3047 329.6464 0006868 172.4140 187.7219 15.53537653126148
HORIZON (RS59S)         
1 61757U 24199Y   26094.23529860  .00315926  00000+0  16845-2 0  9998
2 61757  97.2986 334.3276 0006442 149.1437 211.0211 15.79537794126444
ARCTICSAT 1 (RS74S)     
1 61762U 24199AD  26094.21291803  .00209980  00000+0  15626-2 0  9993
2 61762  97.3019 333.6101 0006629 146.5710 213.5973 15.72154489126394
SIT-2086                
1 61764U 24199AF  26094.25048095  .00041589  00000+0  76505-3 0  9995
2 61764  97.3067 329.5427 0007136 166.2059 193.9388 15.49060647122970
HYPERVIEW 1G (RS66S)    
1 61772U 24199AP  26094.22507442  .00116388  00000+0  13179-2 0  9994
2 61772  97.3021 331.0245 0008248 171.8336 188.3058 15.61992726123081
ALTAIR (RS65S)          
1 61779U 24199AW  26094.25095656  .00019302  00000+0  55752-3 0  9995
2 61779  97.3133 324.1217 0012418 204.6389 155.4263 15.35623391125761
ASRTU-1 (AO-123)        
1 61781U 24199AY  26094.24669723  .00015294  00000+0  45702-3 0  9999
2 61781  97.3105 323.5976 0013293 207.6270 152.4268 15.34592296122589
TUSUR GO (RS78S)        
1 61782U 24199AZ  26094.22962838  .00395247  00000+0  19046-2 0  9991
2 61782  97.2935 333.3594 0006788 159.6820 200.4720 15.81560269123241
SAMSAT-IONOSPHERE (RS7*)
1 61784U 24199BB  26094.22623976  .00064226  00000+0  10683-2 0  9998
2 61784  97.3060 328.6669 0009872 182.0586 178.0628 15.51786029126071
RTU MIREA 1 (RS51S)     
1 61785U 24199BC  26094.25438822  .00075805  00000+0  11606-2 0  9997
2 61785  97.3059 329.2209 0009964 179.6068 180.5195 15.54047372122961
TEVEL2-4                
1 63213U 25052D   26094.24181789  .00035280  00000+0  11372-2 0  9993
2 63213  97.3986 350.6242 0003570  47.9687 312.1858 15.32084733 58789
TEVEL2-5                
1 63214U 25052E   26094.18958867  .00035027  00000+0  11341-2 0  9991
2 63214  97.3985 350.5387 0003574  48.4718 311.6830 15.31944758 58777
TEVEL2-6                
1 63215U 25052F   26093.15493678  .00033764  00000+0  10973-2 0  9998
2 63215  97.3990 349.4910 0003775  49.6169 310.5402 15.31832415 58611
